FENGYUN 1C DEB          
1 36691U 99025DZM 17340.12118264  .00000736  00000-0  55556-3 0  9995
2 36691  98.7163 100.4693 0151177  69.2805 292.4485 13.91807906543590
